[{"OBJECT_NAME":"STARLINK-33792","OBJECT_ID":"2025-071P","EPOCH":"2026-03-09T13:33:34.764480","MEAN_MOTION":15.30188086,"ECCENTRICITY":9.72e-5,"INCLINATION":53.1578,"RA_OF_ASC_NODE":140.3008,"ARG_OF_PERICENTER":104.7553,"MEAN_ANOMALY":255.3555,"EPHEMERIS_TYPE":0,"CLASSIFICATION_TYPE":"U","NORAD_CAT_ID":63506,"ELEMENT_SET_NO":999,"REV_AT_EPOCH":5270,"BSTAR":0.00075717,"MEAN_MOTION_DOT":0.00022125,"MEAN_MOTION_DDOT":0},{"OBJECT_NAME":"OBJECT D","OBJECT_ID":"2021-102D","EPOCH":"2026-03-09T14:47:14.426880","MEAN_MOTION":15.2846442,"ECCENTRICITY":0.0009157,"INCLINATION":97.3342,"RA_OF_ASC_NODE":112.2633,"ARG_OF_PERICENTER":187.6206,"MEAN_ANOMALY":172.4897,"EPHEMERIS_TYPE":0,"CLASSIFICATION_TYPE":"U","NORAD_CAT_ID":49398,"ELEMENT_SET_NO":999,"REV_AT_EPOCH":23880,"BSTAR":0.00046011,"MEAN_MOTION_DOT":0.00012697,"MEAN_MOTION_DDOT":0}]
